FALCONSAT-10            
1 58291U 23174AM  26068.70247784  .00006748  00000+0  25969-3 0  9991
2 58291  97.3865 145.7938 0008932 169.5942 190.5483 15.26670596129582
STARLINK-35354          
1 66477U 25262X   26068.00339154  .00040164  00000+0  14603-2 0  9994
2 66477  43.0041 299.8515 0002489 252.6156 107.4424 15.27598085 18802
