[{"OBJECT_NAME":"FALCONSAT-10","OBJECT_ID":"2023-174AM","EPOCH":"2026-03-09T16:51:34.085376","MEAN_MOTION":15.26670596,"ECCENTRICITY":0.00089318,"INCLINATION":97.3865,"RA_OF_ASC_NODE":145.7938,"ARG_OF_PERICENTER":169.5942,"MEAN_ANOMALY":190.5483,"EPHEMERIS_TYPE":0,"CLASSIFICATION_TYPE":"U","NORAD_CAT_ID":58291,"ELEMENT_SET_NO":999,"REV_AT_EPOCH":12958,"BSTAR":0.00025968794,"MEAN_MOTION_DOT":6.748e-5,"MEAN_MOTION_DDOT":0},{"OBJECT_NAME":"STARLINK-35354","OBJECT_ID":"2025-262X","EPOCH":"2026-03-09T00:04:53.029056","MEAN_MOTION":15.27598085,"ECCENTRICITY":0.00024893,"INCLINATION":43.0041,"RA_OF_ASC_NODE":299.8515,"ARG_OF_PERICENTER":252.6156,"MEAN_ANOMALY":107.4424,"EPHEMERIS_TYPE":0,"CLASSIFICATION_TYPE":"U","NORAD_CAT_ID":66477,"ELEMENT_SET_NO":999,"REV_AT_EPOCH":1880,"BSTAR":0.0014602656,"MEAN_MOTION_DOT":0.00040164,"MEAN_MOTION_DDOT":0}]
